HULIANWANG DIGUI-92     
1 66000U 25231F   26193.91823802 -.00000118  00000+0  12576-4 0  9994
2 66000  50.0051  83.3688 0000589 329.5161  30.5677 13.29328737 36316
HULIANWANG DIGUI-93     
1 66001U 25231G   26194.87882838 -.00000104  00000+0  42920-4 0  9996
2 66001  50.0022  79.7117 0000559 329.9694  30.1146 13.29327932 36440
HULIANWANG DIGUI-94     
1 66002U 25231H   26194.88733411 -.00000108  00000+0  34298-4 0  9993
2 66002  50.0060  79.8383 0000600 330.3276  29.7562 13.29325807 36443
HULIANWANG DIGUI-95     
1 66003U 25231J   26194.87052608 -.00000101  00000+0  48926-4 0  9991
2 66003  50.0036  79.6940 0000510 336.1148  23.9700 13.29332428 36443
HULIANWANG DIGUI-96     
1 66412U 25258A   26194.29279027 -.00000096  00000+0  61144-4 0  9996
2 66412  50.0023 202.0099 0000868 244.3288 115.7495 13.29327157 33206
HULIANWANG DIGUI-97     
1 66413U 25258B   26194.40133850 -.00000098  00000+0  55796-4 0  9991
2 66413  49.9984 201.8455 0001040 242.6361 117.4405 13.29326621 33215
HULIANWANG DIGUI-98     
1 66414U 25258C   26194.39312503 -.00000095  00000+0  62060-4 0  9993
2 66414  50.0019 201.8801 0001115 239.1694 120.9069 13.29323061 33216
HULIANWANG DIGUI-99     
1 66415U 25258D   26193.98374745 -.00000093  00000+0  66897-4 0  9994
2 66415  50.0022 203.0473 0000984 246.3175 113.7594 13.29326404 33157
HULIANWANG DIGUI-100    
1 66416U 25258E   26194.38476239 -.00000096  00000+0  60907-4 0  9990
2 66416  50.0022 201.8414 0001014 252.4230 107.6531 13.29323083 33225
HULIANWANG DIGUI-101    
1 66417U 25258F   26194.45141247 -.00000093  00000+0  66268-4 0  9990
2 66417  49.9973 201.4204 0000844 246.0124 114.0659 13.29327069 33234
HULIANWANG DIGUI-102    
1 66418U 25258G   26193.07325022 -.00000084  00000+0  85526-4 0  9991
2 66418  49.9988 206.1690 0000911 238.3695 121.7089 13.29323039 33048
HULIANWANG DIGUI-103    
1 66419U 25258H   26193.96693017 -.00000099  00000+0  53090-4 0  9999
2 66419  49.9980 202.8742 0001009 251.9402 108.1360 13.29326121 33167
HULIANWANG DIGUI-104    
1 66420U 25258J   26194.48487477 -.00000107  00000+0  35987-4 0  9995
2 66420  50.0000 200.9828 0000943 243.1924 116.8852 13.29326199 33221
HULIANWANG DIGUI-105    
1 66915U 25285A   26194.86484522 -.00000099  00000+0  54450-4 0  9990
2 66915  50.0060  50.5428 0000992  28.6653 331.4274 13.29322677 29607
HULIANWANG DIGUI-106    
1 66916U 25285B   26194.85644707 -.00000105  00000+0  40209-4 0  9998
2 66916  50.0070  50.5196 0001007  28.0217 332.0710 13.29323058 29605
HULIANWANG DIGUI-107    
1 66917U 25285C   26194.84796005 -.00000106  00000+0  39198-4 0  9993
2 66917  50.0033  50.4141 0000985  32.4551 327.6382 13.29325969 29606
