{"fetched_at":"2026-07-14T06:34:47.836Z","source":"https://celestrak.org/NORAD/elements/gp.php?NAME=HULIANWANG&FORMAT=JSON","constellation":"guowang","records":[{"OBJECT_NAME":"HULIANWANG DIGUI-92","OBJECT_ID":"2025-231F","EPOCH":"2026-07-12T22:02:15.764928","CLASSIFICATION_TYPE":"U","MEAN_MOTION":13.29328737,"ECCENTRICITY":0.00005894,"INCLINATION":50.0051,"RA_OF_ASC_NODE":83.3688,"ARG_OF_PERICENTER":329.5161,"MEAN_ANOMALY":30.5677,"EPHEMERIS_TYPE":0,"NORAD_CAT_ID":66000,"ELEMENT_SET_NO":999,"REV_AT_EPOCH":3631,"BSTAR":0.000012575813,"MEAN_MOTION_DOT":-0.00000118,"MEAN_MOTION_DDOT":0},{"OBJECT_NAME":"HULIANWANG DIGUI-93","OBJECT_ID":"2025-231G","EPOCH":"2026-07-13T21:05:30.772032","CLASSIFICATION_TYPE":"U","MEAN_MOTION":13.29327932,"ECCENTRICITY":0.0000559,"INCLINATION":50.0022,"RA_OF_ASC_NODE":79.7117,"ARG_OF_PERICENTER":329.9694,"MEAN_ANOMALY":30.1146,"EPHEMERIS_TYPE":0,"NORAD_CAT_ID":66001,"ELEMENT_SET_NO":999,"REV_AT_EPOCH":3644,"BSTAR":0.00004292,"MEAN_MOTION_DOT":-0.00000104,"MEAN_MOTION_DDOT":0},{"OBJECT_NAME":"HULIANWANG DIGUI-94","OBJECT_ID":"2025-231H","EPOCH":"2026-07-13T21:17:45.667104","CLASSIFICATION_TYPE":"U","MEAN_MOTION":13.29325807,"ECCENTRICITY":0.00006,"INCLINATION":50.006,"RA_OF_ASC_NODE":79.8383,"ARG_OF_PERICENTER":330.3276,"MEAN_ANOMALY":29.7562,"EPHEMERIS_TYPE":0,"NORAD_CAT_ID":66002,"ELEMENT_SET_NO":999,"REV_AT_EPOCH":3644,"BSTAR":0.000034298,"MEAN_MOTION_DOT":-0.00000108,"MEAN_MOTION_DDOT":0},{"OBJECT_NAME":"HULIANWANG DIGUI-95","OBJECT_ID":"2025-231J","EPOCH":"2026-07-13T20:53:33.453312","CLASSIFICATION_TYPE":"U","MEAN_MOTION":13.29332428,"ECCENTRICITY":0.000051,"INCLINATION":50.0036,"RA_OF_ASC_NODE":79.694,"ARG_OF_PERICENTER":336.1148,"MEAN_ANOMALY":23.97,"EPHEMERIS_TYPE":0,"NORAD_CAT_ID":66003,"ELEMENT_SET_NO":999,"REV_AT_EPOCH":3644,"BSTAR":0.000048926,"MEAN_MOTION_DOT":-0.00000101,"MEAN_MOTION_DDOT":0},{"OBJECT_NAME":"HULIANWANG DIGUI-96","OBJECT_ID":"2025-258A","EPOCH":"2026-07-13T07:01:37.079328","CLASSIFICATION_TYPE":"U","MEAN_MOTION":13.29327157,"ECCENTRICITY":0.0000868,"INCLINATION":50.0023,"RA_OF_ASC_NODE":202.0099,"ARG_OF_PERICENTER":244.3288,"MEAN_ANOMALY":115.7495,"EPHEMERIS_TYPE":0,"NORAD_CAT_ID":66412,"ELEMENT_SET_NO":999,"REV_AT_EPOCH":3320,"BSTAR":0.000061144,"MEAN_MOTION_DOT":-9.6e-7,"MEAN_MOTION_DDOT":0},{"OBJECT_NAME":"HULIANWANG DIGUI-97","OBJECT_ID":"2025-258B","EPOCH":"2026-07-13T09:37:55.646400","CLASSIFICATION_TYPE":"U","MEAN_MOTION":13.29326621,"ECCENTRICITY":0.00010403,"INCLINATION":49.9984,"RA_OF_ASC_NODE":201.8455,"ARG_OF_PERICENTER":242.6361,"MEAN_ANOMALY":117.4405,"EPHEMERIS_TYPE":0,"NORAD_CAT_ID":66413,"ELEMENT_SET_NO":999,"REV_AT_EPOCH":3321,"BSTAR":0.000055795608,"MEAN_MOTION_DOT":-9.8e-7,"MEAN_MOTION_DDOT":0},{"OBJECT_NAME":"HULIANWANG DIGUI-98","OBJECT_ID":"2025-258C","EPOCH":"2026-07-13T09:26:06.002592","CLASSIFICATION_TYPE":"U","MEAN_MOTION":13.29323061,"ECCENTRICITY":0.00011159,"INCLINATION":50.0019,"RA_OF_ASC_NODE":201.8801,"ARG_OF_PERICENTER":239.1694,"MEAN_ANOMALY":120.9069,"EPHEMERIS_TYPE":0,"NORAD_CAT_ID":66414,"ELEMENT_SET_NO":999,"REV_AT_EPOCH":3321,"BSTAR":0.000062060139,"MEAN_MOTION_DOT":-9.5e-7,"MEAN_MOTION_DDOT":0},{"OBJECT_NAME":"HULIANWANG DIGUI-99","OBJECT_ID":"2025-258D","EPOCH":"2026-07-12T23:36:35.779680","CLASSIFICATION_TYPE":"U","MEAN_MOTION":13.29326404,"ECCENTRICITY":0.00009843,"INCLINATION":50.0022,"RA_OF_ASC_NODE":203.0473,"ARG_OF_PERICENTER":246.3175,"MEAN_ANOMALY":113.7594,"EPHEMERIS_TYPE":0,"NORAD_CAT_ID":66415,"ELEMENT_SET_NO":999,"REV_AT_EPOCH":3315,"BSTAR":0.000066896819,"MEAN_MOTION_DOT":-9.3e-7,"MEAN_MOTION_DDOT":0},{"OBJECT_NAME":"HULIANWANG DIGUI-100","OBJECT_ID":"2025-258E","EPOCH":"2026-07-13T09:14:03.470496","CLASSIFICATION_TYPE":"U","MEAN_MOTION":13.29323083,"ECCENTRICITY":0.00010145,"INCLINATION":50.0022,"RA_OF_ASC_NODE":201.8414,"ARG_OF_PERICENTER":252.423,"MEAN_ANOMALY":107.6531,"EPHEMERIS_TYPE":0,"NORAD_CAT_ID":66416,"ELEMENT_SET_NO":999,"REV_AT_EPOCH":3322,"BSTAR":0.000060906503,"MEAN_MOTION_DOT":-9.6e-7,"MEAN_MOTION_DDOT":0},{"OBJECT_NAME":"HULIANWANG DIGUI-101","OBJECT_ID":"2025-258F","EPOCH":"2026-07-13T10:50:02.037408","CLASSIFICATION_TYPE":"U","MEAN_MOTION":13.29327069,"ECCENTRICITY":0.00008448,"INCLINATION":49.9973,"RA_OF_ASC_NODE":201.4204,"ARG_OF_PERICENTER":246.0124,"MEAN_ANOMALY":114.0659,"EPHEMERIS_TYPE":0,"NORAD_CAT_ID":66417,"ELEMENT_SET_NO":999,"REV_AT_EPOCH":3323,"BSTAR":0.000066268005,"MEAN_MOTION_DOT":-9.3e-7,"MEAN_MOTION_DDOT":0},{"OBJECT_NAME":"HULIANWANG DIGUI-102","OBJECT_ID":"2025-258G","EPOCH":"2026-07-12T01:45:28.819008","CLASSIFICATION_TYPE":"U","MEAN_MOTION":13.29323039,"ECCENTRICITY":0.0000911,"INCLINATION":49.9988,"RA_OF_ASC_NODE":206.169,"ARG_OF_PERICENTER":238.3695,"MEAN_ANOMALY":121.7089,"EPHEMERIS_TYPE":0,"NORAD_CAT_ID":66418,"ELEMENT_SET_NO":999,"REV_AT_EPOCH":3304,"BSTAR":0.000085526,"MEAN_MOTION_DOT":-8.4e-7,"MEAN_MOTION_DDOT":0},{"OBJECT_NAME":"HULIANWANG DIGUI-103","OBJECT_ID":"2025-258H","EPOCH":"2026-07-12T23:12:22.766688","CLASSIFICATION_TYPE":"U","MEAN_MOTION":13.29326121,"ECCENTRICITY":0.00010099,"INCLINATION":49.998,"RA_OF_ASC_NODE":202.8742,"ARG_OF_PERICENTER":251.9402,"MEAN_ANOMALY":108.136,"EPHEMERIS_TYPE":0,"NORAD_CAT_ID":66419,"ELEMENT_SET_NO":999,"REV_AT_EPOCH":3316,"BSTAR":0.000053089619,"MEAN_MOTION_DOT":-9.9e-7,"MEAN_MOTION_DDOT":0},{"OBJECT_NAME":"HULIANWANG DIGUI-104","OBJECT_ID":"2025-258J","EPOCH":"2026-07-13T11:38:13.180128","CLASSIFICATION_TYPE":"U","MEAN_MOTION":13.29326199,"ECCENTRICITY":0.00009436,"INCLINATION":50,"RA_OF_ASC_NODE":200.9828,"ARG_OF_PERICENTER":243.1924,"MEAN_ANOMALY":116.8852,"EPHEMERIS_TYPE":0,"NORAD_CAT_ID":66420,"ELEMENT_SET_NO":999,"REV_AT_EPOCH":3322,"BSTAR":0.000035987027,"MEAN_MOTION_DOT":-0.00000107,"MEAN_MOTION_DDOT":0},{"OBJECT_NAME":"HULIANWANG DIGUI-105","OBJECT_ID":"2025-285A","EPOCH":"2026-07-13T20:45:22.627008","CLASSIFICATION_TYPE":"U","MEAN_MOTION":13.29322677,"ECCENTRICITY":0.0000992,"INCLINATION":50.006,"RA_OF_ASC_NODE":50.5428,"ARG_OF_PERICENTER":28.6653,"MEAN_ANOMALY":331.4274,"EPHEMERIS_TYPE":0,"NORAD_CAT_ID":66915,"ELEMENT_SET_NO":999,"REV_AT_EPOCH":2960,"BSTAR":0.00005445,"MEAN_MOTION_DOT":-9.9e-7,"MEAN_MOTION_DDOT":0},{"OBJECT_NAME":"HULIANWANG DIGUI-106","OBJECT_ID":"2025-285B","EPOCH":"2026-07-13T20:33:17.026848","CLASSIFICATION_TYPE":"U","MEAN_MOTION":13.29323058,"ECCENTRICITY":0.0001007,"INCLINATION":50.007,"RA_OF_ASC_NODE":50.5196,"ARG_OF_PERICENTER":28.0217,"MEAN_ANOMALY":332.071,"EPHEMERIS_TYPE":0,"NORAD_CAT_ID":66916,"ELEMENT_SET_NO":999,"REV_AT_EPOCH":2960,"BSTAR":0.000040209,"MEAN_MOTION_DOT":-0.00000105,"MEAN_MOTION_DDOT":0},{"OBJECT_NAME":"HULIANWANG DIGUI-107","OBJECT_ID":"2025-285C","EPOCH":"2026-07-13T20:21:03.748320","CLASSIFICATION_TYPE":"U","MEAN_MOTION":13.29325969,"ECCENTRICITY":0.0000985,"INCLINATION":50.0033,"RA_OF_ASC_NODE":50.4141,"ARG_OF_PERICENTER":32.4551,"MEAN_ANOMALY":327.6382,"EPHEMERIS_TYPE":0,"NORAD_CAT_ID":66917,"ELEMENT_SET_NO":999,"REV_AT_EPOCH":2960,"BSTAR":0.000039198,"MEAN_MOTION_DOT":-0.00000106,"MEAN_MOTION_DDOT":0}]}
